OBJECT_NAME,OBJECT_ID,EPOCH,MEAN_MOTION,ECCENTRICITY,INCLINATION,RA_OF_ASC_NODE,ARG_OF_PERICENTER,MEAN_ANOMALY,EPHEMERIS_TYPE,CLASSIFICATION_TYPE,NORAD_CAT_ID,ELEMENT_SET_NO,REV_AT_EPOCH,BSTAR,MEAN_MOTION_DOT,MEAN_MOTION_DDOT
ONEWEB-0556,2023-029C,2026-07-09T04:56:21.630624,13.20788951,.00014158,87.9176,270.0786,100.6192,259.5101,0,U,55798,999,16405,-.59176599E-2,-.2393E-4,0
ONEWEB-0562,2023-029D,2026-07-11T03:53:22.670880,13.20771958,.0001396,87.9180,269.6703,76.9554,283.1735,0,U,55799,999,16431,.28537E-3,.129E-5,0
ONEWEB-0563,2023-029E,2026-07-11T03:46:05.246688,13.20770731,.0002022,87.9177,269.7015,106.0919,254.0437,0,U,55800,999,16430,-.58382E-3,-.224E-5,0
ONEWEB-0564,2023-029F,2026-07-11T03:36:25.024896,13.20772482,.0001814,87.9180,269.6770,90.3120,269.8221,0,U,55801,999,16431,.10695E-3,.56E-6,0
ONEWEB-0638,2023-029G,2026-07-09T05:43:59.399616,13.14504124,.00014198,87.8960,285.3561,96.7048,263.4244,0,U,55802,999,16229,.99489973E-4,.5E-6,0
ONEWEB-0639,2023-029H,2026-07-10T16:28:54.493248,13.19726484,.000247,87.9179,300.2968,124.5240,235.6126,0,U,55803,999,16200,-.89256E-5,.9E-7,0
ONEWEB-0640,2023-029J,2026-07-11T05:27:31.850208,13.14502535,.000151,87.8959,284.9505,113.1926,246.9363,0,U,55804,999,16257,-.18663E-4,.6E-7,0
ONEWEB-0641,2023-029K,2026-07-08T20:41:52.025280,13.19732088,.00020579,87.9193,300.6496,106.5945,253.5414,0,U,55805,999,16177,-.25007361E-2,-.988E-5,0
ONEWEB-0642,2023-029L,2026-07-09T05:40:56.428608,13.19727392,.00025098,87.9191,300.5858,118.8424,241.2961,0,U,55806,999,16181,-.38855672E-3,-.143E-5,0
ONEWEB-0643,2023-029M,2026-07-11T04:44:08.928384,13.14502359,.0002635,87.8962,284.9439,108.7562,251.3854,0,U,55807,999,16254,-.30092E-3,-.99E-6,0
ONEWEB-0644,2023-029N,2026-07-10T07:02:34.997568,13.19725497,.00022396,87.9181,300.3764,108.2878,251.8498,0,U,55808,999,16195,.42733819E-4,.3E-6,0
ONEWEB-0645,2023-029P,2026-07-10T05:45:14.890752,13.19725897,.0001907,87.9184,300.3839,115.5094,244.6236,0,U,55809,999,16194,.14056829E-4,.19E-6,0
ONEWEB-0646,2023-029Q,2026-07-10T06:10:15.581856,13.19726532,.0002183,87.9185,300.3809,107.2590,252.8782,0,U,55810,999,16193,.19234508E-3,.9E-6,0
ONEWEB-0648,2023-029R,2026-07-10T06:03:09.738720,13.14503006,.00022705,87.8980,285.1070,128.7383,231.3950,0,U,55811,999,16242,.5450751E-3,.215E-5,0
ONEWEB-0649,2023-029S,2026-07-10T06:46:38.523648,13.19725870,.00019706,87.9186,300.3739,108.6388,251.4959,0,U,55812,999,16197,-.17023109E-3,-.55E-6,0
ONEWEB-0650,2023-029T,2026-07-09T07:00:31.856832,13.19726002,.0002359,87.9183,300.5733,115.5231,244.6146,0,U,55813,999,16181,.61782119E-4,.38E-6,0
ONEWEB-0652,2023-029U,2026-07-11T05:20:40.809120,13.14502357,.0002,87.8966,284.9223,95.8538,264.2820,0,U,55814,999,16252,-.51399E-4,-.6E-7,0
ONEWEB-0653,2023-029V,2026-07-10T05:12:54.600768,13.14502047,.00019469,87.8967,285.1197,99.3095,260.8254,0,U,55815,999,16242,-.62644086E-3,-.219E-5,0
ONEWEB-0654,2023-029W,2026-07-11T04:50:59.025984,13.14502076,.0001908,87.8971,284.9199,89.8982,270.2366,0,U,55816,999,16257,-.42942E-3,-.146E-5,0
ONEWEB-0656,2023-029X,2026-07-09T04:10:21.629280,13.20769953,.00019948,87.9189,270.0495,86.5181,273.6181,0,U,55817,999,16405,.16573602E-3,.8E-6,0
ONEWEB-0657,2023-029Y,2026-07-10T13:49:45.002784,13.19726737,.00023176,87.9182,300.3164,82.0285,278.1111,0,U,55818,999,16199,.12812043E-3,.64E-6,0
ONEWEB-0658,2023-029Z,2026-07-10T06:26:11.591808,13.19725925,.0002286,87.9187,300.3556,110.8988,249.2389,0,U,55819,999,16196,.10816243E-3,.56E-6,0
ONEWEB-0660,2023-029AA,2026-07-10T06:23:42.099072,13.14501471,.00018301,87.8976,285.1022,107.2250,252.9080,0,U,55820,999,16243,.66711309E-4,.38E-6,0
ONEWEB-0661,2023-029AB,2026-07-11T05:09:16.001856,13.14502461,.0001797,87.8960,284.9532,104.0367,256.0963,0,U,55821,999,16254,-.59913E-3,-.209E-5,0
ONEWEB-0662,2023-029AC,2026-07-11T04:09:53.885376,13.14502140,.0001952,87.8963,284.9670,119.1320,241.0005,0,U,55822,999,16258,.84669E-3,.327E-5,0
ONEWEB-0663,2023-029AD,2026-07-11T04:12:40.037760,13.20871332,.0002105,87.9189,269.7225,110.2920,249.8440,0,U,55823,999,16431,.14226E-3,.71E-6,0
ONEWEB-0664,2023-029AE,2026-07-09T03:50:59.879328,13.20772061,.00015773,87.9180,270.1016,99.7884,260.3428,0,U,55824,999,16404,.13351157E-3,.67E-6,0
ONEWEB-0665,2023-029AF,2026-07-11T05:04:41.911680,13.14502292,.0001976,87.8958,284.9348,108.6944,251.4400,0,U,55825,999,16256,-.57048E-3,-.199E-5,0
ONEWEB-0666,2023-029AG,2026-07-11T04:46:42.062016,13.20772611,.0002652,87.9177,269.6854,86.4432,273.7004,0,U,55826,999,16432,-.11095E-3,-.32E-6,0
ONEWEB-0667,2023-029AH,2026-07-11T04:39:25.654752,13.20772692,.0001972,87.9193,269.6482,101.8527,258.2827,0,U,55827,999,16431,-.18555E-3,-.62E-6,0
